ORBCOMM FM05            
1 25117U 97084F   25007.80594552  .00003112  00000+0  92574-3 0  9992
2 25117  45.0152  57.5545 0001615 218.6669 141.4067 14.44907239417409
ORBCOMM FM06            
1 25118U 97084G   25007.84712560  .00002967  00000+0  88148-3 0  9997
2 25118  45.0145  57.2910 0001985 249.1058 280.9474 14.45085414418322
ORBCOMM FM07            
1 25119U 97084H   25007.82366171  .00003369  00000+0  99742-3 0  9998
2 25119  45.0141  58.1305 0001401 188.8514 171.2313 14.44982549418313
ORBCOMM FM04            
1 25159U 98007C   25007.71520900  .00003075  00000+0  11340-2 0  9999
2 25159 107.9658 169.1962 0041473 170.5283 189.6647 14.34056557401218
ORBCOMM FM17            
1 25413U 98046A   25007.76958418  .00002111  00000+0  79139-3 0  9990
2 25413  44.9944 294.3830 0001536  95.6826 264.4196 14.34494802380137
ORBCOMM FM18            
1 25414U 98046B   25007.88828018  .00002326  00000+0  81287-3 0  9991
2 25414  44.9910 215.3722 0004825 184.2831 175.7976 14.37712705381172
ORBCOMM FM19            
1 25415U 98046C   25007.83600111  .00002335  00000+0  81890-3 0  9999
2 25415  44.9920 217.3688 0003696 173.8380 301.6359 14.37527893381127
